#aV2016  4 15  0  0  0.00000000     288 DD+AD WGS84 FIT  NGA
## 1892 432000.00000000   300.00000000 57493 0.0000000000000
+   31     1  2  3  5  6  7  8  9 10 11 12 13 14 15 16 17 18
+         19 20 21 22 23 24 25 26 27 28 29 30 31 32  0  0  0
+          0  0  0  0  0  0  0  0  0  0  0  0  0  0  0  0  0
+          0  0  0  0  0  0  0  0  0  0  0  0  0  0  0  0  0
+          0  0  0  0  0  0  0  0  0  0  0  0  0  0  0  0  0
++         2  2  2  2  2  2  2  2  2  2  2  2  2  2  2  2  2
++         2  2  2  2  2  2  2  2  2  2  2  2  2  2  0  0  0
++         0  0  0  0  0  0  0  0  0  0  0  0  0  0  0  0  0
++         0  0  0  0  0  0  0  0  0  0  0  0  0  0  0  0  0
++         0  0  0  0  0  0  0  0  0  0  0  0  0  0  0  0  0
%c cc cc ccc ccc cccc cccc cccc cccc ccccc ccccc ccccc ccccc
%c cc cc ccc ccc cccc cccc cccc cccc ccccc ccccc ccccc ccccc
%f  0.0000000  0.000000000  0.00000000000  0.000000000000000
%f  0.0000000  0.000000000  0.00000000000  0.000000000000000
%i    0    0    0    0      0      0      0      0         0
%i    0    0    0    0      0      0      0      0         0
/*      NGA, ST. LOUIS,MO.                                  
/*   EPHEMERIS COMPUTED FROM 2 DAYS OF DATA                 
/*   EPOCHA v2.4 SMOOTHER                                   
/*   G1762 IERS2010 SATAF SATAPC                            
*  2016  4 15 12 10  0.00000000
P  1 -13550.123220  12290.531903  19097.149430     17.406763                    
V  1   -877.607670 -24504.752489  15313.602872      0.011498                    
P  2  14035.125794  11710.984340 -18970.419219    596.945832                    
V  2   -896.655873  24971.986880  14029.277525     -0.018588                    
P  3 -22893.570181  13443.534959   -938.344551    -47.719970                    
V  3  -2430.446994  -1914.516519  31691.363186     -0.040843                    
P  5  21368.500409   1039.793449 -15933.012592   -128.768634                    
V  5 -16419.613319  11722.444339 -21148.731475      0.031729                    
P  6   6678.871543  23627.705797 -10113.462792    176.066850                    
V  6  -2613.824682  12821.690951  28189.407402      0.056447                    
P  7  -6063.977672  24537.525654  -7325.970828    459.972757                    
V  7  -2442.214673  -9684.343613 -30268.187592     -0.020520                    
P  8 -23034.552315  -3163.197498  12924.685473    -31.474803                    
V  8 -12929.622352 -10174.730028 -25608.251701     -0.015129                    
P  9  -5947.561297  14243.258023 -21630.535739    110.346758                    
V  9 -23759.029981 -13741.955385  -2533.120813      0.074412                    
P 10  -1216.361467 -16193.454329  21023.069504      1.386711                    
V 10  23647.618259 -12360.231667  -8219.228950     -0.096300                    
P 11 -14872.446700   6802.913357  20376.296303   -640.836760                    
V 11  -9691.485181 -25670.419539   1503.426316     -0.018407                    
P 12  24255.556835 -10267.717927   2178.962432    376.384411                    
V 12  -1731.742794   3132.256297  32390.926835      0.013789                    
P 13  22802.369904  11631.279386   6776.158578    -11.066414                    
V 13   5493.478513   7286.019730 -30482.990961     -0.027128                    
P 14 -11720.575429 -19855.033960  13582.860651     -8.477527                    
V 14  14795.365464   8104.702389  24928.227798     -0.021371                    
P 15  22036.596447   -991.659497  14909.132075   -306.559687                    
V 15  15770.204302  11052.408882 -22041.104492     -0.017331                    
P 16 -20748.549966  -2423.469539 -16734.864265    -24.417081                    
V 16  18488.531366  -9668.655935 -21269.423651      0.027767                    
P 17   9702.529491  19324.952346  15876.380123   -203.122435                    
V 17 -16994.138835  -9571.400416  22324.635605     -0.003272                    
P 18  10293.113659 -19466.929359  15199.664620    504.921856                    
V 18  17392.087121  -7115.503875 -21926.066450      0.041269                    
P 19  17603.764158  18434.975792   6478.475119   -525.623040                    
V 19  -8522.378178  -2948.047702  30824.865959     -0.000690                    
P 20  23279.864608 -12393.545286  -3517.129805    406.110316                    
V 20  -1468.515119   5541.484694 -30517.167432      0.024450                    
P 21   2253.160459 -25995.169726  -3381.761107   -519.139921                    
V 21   3922.564052   5215.205334 -30964.620622     -0.014730                    
P 22 -24250.025188   6117.871689   9448.281473    362.167803                    
V 22   8294.205316  -8888.191660  27590.739360     -0.073797                    
P 23 -16576.650691   6569.031601 -19632.865454   -169.485045                    
V 23 -21082.483743 -13940.941325  12577.714167     -0.017222                    
P 24  14475.106553  -8924.370003  20297.554311    -15.535417                    
V 24   1317.528741  25985.024015  10646.964811     -0.006223                    
P 25  18366.157106 -16942.178308  -8831.511330   -153.481189                    
V 25  10756.742910  -3449.155847  29571.528929     -0.070808                    
P 26 -12598.894686  -9903.063880 -21192.698795   -331.159883                    
V 26  23119.632082 -13751.763579  -7271.735555     -0.135450                    
P 27 -23791.565350 -11556.697445   3238.222130     82.440013                    
V 27  -2350.288844  -4111.974706 -31519.685446      0.038949                    
P 28  -1072.736042  16157.381554  21672.820449    516.332480                    
V 28 -23805.868389  10439.970165  -9277.078502      0.025826                    
P 29   9472.530406 -11501.201166 -21971.381446    656.899739                    
V 29  23006.523894  15755.156206   1716.243624      0.002249                    
P 30   -280.866291  26361.929925   2773.441092    116.839431                    
V 30  -3436.676676   3266.448439 -31365.080424      0.034895                    
P 31  -7485.160794 -21927.219697 -12545.012614    273.634370                    
V 31   3129.525840 -16078.193089  26375.153388     -0.018108                    
P 32 -12739.871063 -18776.846596  13813.091109      5.329037                    
V 32  16205.266302   7044.591948  24521.872289     -0.032301                    
EOF
